GPS BIIF-11             
1 41019U 15062A   26093.49069273 -.00000091  00000+0  00000+0 0  9998
2 41019  56.9127  33.6891 0111291 231.5972 127.3862  2.00567162 76338
ELEKTRO-L 2             
1 41105U 15074A   26095.24291654 -.00000114  00000+0  00000+0 0  9998
2 41105   6.5120  71.4090 0002580 258.9088 296.2004  1.00272399 37773
GSAT0209 (GALILEO 12)   
1 41174U 15079A   26092.95596920  .00000032  00000+0  00000+0 0  9996
2 41174  55.7797 103.3236 0005514 325.8217  34.1781  1.70474345 63491
GSAT0208 (GALILEO 11)   
1 41175U 15079B   26093.17621361  .00000031  00000+0  00000+0 0  9999
2 41175  55.7782 103.3145 0004973 327.5574  32.4460  1.70474211 63912
GPS BIIF-12             
1 41328U 16007A   26095.07316084  .00000003  00000+0  00000+0 0  9994
2 41328  55.4776  92.3565 0095993 246.7419 112.2530  2.00555330 74370
GSAT0211 (GALILEO 14)   
1 41549U 16030A   26094.47340742 -.00000007  00000+0  00000+0 0  9991
2 41549  55.1194 223.7205 0002867  14.1895 345.7766  1.70474141 61411
GSAT0210 (GALILEO 13)   
1 41550U 16030B   26094.14409291 -.00000008  00000+0  00000+0 0  9993
2 41550  55.1189 223.7276 0002051 215.3594 144.5829  1.70474077 61403
INSAT-3DR               
1 41752U 16054A   26095.11785901 -.00000076  00000+0  00000+0 0  9991
2 41752   0.1295  86.7921 0012086 196.6004  26.4708  1.00273784 35089
GSAT0207 (GALILEO 15)   
1 41859U 16069A   26093.24922366  .00000030  00000+0  00000+0 0  9994
2 41859  55.4504 103.1579 0005781 313.2719  46.7132  1.70474272 58128
GSAT0212 (GALILEO 16)   
1 41860U 16069B   26094.27589471  .00000029  00000+0  00000+0 0  9994
2 41860  55.4482 103.1246 0004376 336.7977  23.2102  1.70474499 58398
GSAT0213 (GALILEO 17)   
1 41861U 16069C   26088.19090007  .00000042  00000+0  00000+0 0  9996
2 41861  55.4467 103.3008 0005672 296.7743  63.2211  1.70475393 58159
GSAT0214 (GALILEO 18)   
1 41862U 16069D   26093.61621158  .00000029  00000+0  00000+0 0  9992
2 41862  55.4486 103.1435 0004819 302.4917  57.4928  1.70474615 58373
GOES 16                 
1 41866U 16071A   26095.15738959 -.00000090  00000+0  00000+0 0  9997
2 41866   0.1747  85.2956 0001826 247.2132 172.9164  1.00272286 34374
GSAT-17                 
1 42815U 17040B   26095.26155980 -.00000257  00000+0  00000+0 0  9993
2 42815   0.0681  75.3876 0004030 233.5638  72.2639  1.00273352 32052
GSAT0215 (GALILEO 19)   
1 43055U 17079A   26094.10625773 -.00000008  00000+0  00000+0 0  9990
2 43055  55.0980 223.5434 0000751 277.3476  82.5997  1.70474759 51727
GSAT0216 (GALILEO 20)   
1 43056U 17079B   26092.05111583 -.00000021  00000+0  00000+0 0  9997
2 43056  55.0986 223.5998 0002051 297.7683  62.1536  1.70474829 51709
GSAT0217 (GALILEO 21)   
1 43057U 17079C   26094.03164341 -.00000009  00000+0  00000+0 0  9994
2 43057  55.0959 223.5432 0001888 328.5118  31.4322  1.70474766 51720
